[{"OBJECT_NAME":"STARLINK-5245","OBJECT_ID":"2022-141M","EPOCH":"2026-02-21T13:48:50.480064","MEAN_MOTION":15.08843831,"ECCENTRICITY":0.00015828,"INCLINATION":53.2184,"RA_OF_ASC_NODE":76.5481,"ARG_OF_PERICENTER":68.2644,"MEAN_ANOMALY":291.8517,"EPHEMERIS_TYPE":0,"CLASSIFICATION_TYPE":"U","NORAD_CAT_ID":54168,"ELEMENT_SET_NO":999,"REV_AT_EPOCH":18342,"BSTAR":4.5597923e-5,"MEAN_MOTION_DOT":4.38e-6,"MEAN_MOTION_DDOT":0},{"OBJECT_NAME":"STARLINK-5282","OBJECT_ID":"2022-141N","EPOCH":"2026-02-21T10:59:09.599136","MEAN_MOTION":15.0884639,"ECCENTRICITY":0.00013483,"INCLINATION":53.2167,"RA_OF_ASC_NODE":76.5377,"ARG_OF_PERICENTER":90.9327,"MEAN_ANOMALY":269.182,"EPHEMERIS_TYPE":0,"CLASSIFICATION_TYPE":"U","NORAD_CAT_ID":54169,"ELEMENT_SET_NO":999,"REV_AT_EPOCH":18341,"BSTAR":0.00010037271,"MEAN_MOTION_DOT":1.31e-5,"MEAN_MOTION_DDOT":0},{"OBJECT_NAME":"STARLINK-5155","OBJECT_ID":"2022-141P","EPOCH":"2026-02-21T13:43:28.326432","MEAN_MOTION":15.08877303,"ECCENTRICITY":0.00015213,"INCLINATION":53.2178,"RA_OF_ASC_NODE":76.5248,"ARG_OF_PERICENTER":93.219,"MEAN_ANOMALY":266.8977,"EPHEMERIS_TYPE":0,"CLASSIFICATION_TYPE":"U","NORAD_CAT_ID":54170,"ELEMENT_SET_NO":999,"REV_AT_EPOCH":18342,"BSTAR":0.0003308057,"MEAN_MOTION_DOT":4.986e-5,"MEAN_MOTION_DDOT":0},{"OBJECT_NAME":"STARLINK-5117","OBJECT_ID":"2022-141R","EPOCH":"2026-02-21T10:22:08.935968","MEAN_MOTION":15.0884014,"ECCENTRICITY":0.00013347,"INCLINATION":53.2169,"RA_OF_ASC_NODE":77.0752,"ARG_OF_PERICENTER":87.5385,"MEAN_ANOMALY":272.576,"EPHEMERIS_TYPE":0,"CLASSIFICATION_TYPE":"U","NORAD_CAT_ID":54172,"ELEMENT_SET_NO":999,"REV_AT_EPOCH":18340,"BSTAR":2.6284146e-5,"MEAN_MOTION_DOT":1.3e-6,"MEAN_MOTION_DDOT":0},{"OBJECT_NAME":"STARLINK-5242","OBJECT_ID":"2022-141S","EPOCH":"2026-02-21T11:04:27.736896","MEAN_MOTION":15.088375,"ECCENTRICITY":0.00020167,"INCLINATION":53.2191,"RA_OF_ASC_NODE":76.5451,"ARG_OF_PERICENTER":114.5008,"MEAN_ANOMALY":245.6195,"EPHEMERIS_TYPE":0,"CLASSIFICATION_TYPE":"U","NORAD_CAT_ID":54173,"ELEMENT_SET_NO":999,"REV_AT_EPOCH":18341,"BSTAR":0.00014533104,"MEAN_MOTION_DOT":2.025e-5,"MEAN_MOTION_DDOT":0},{"OBJECT_NAME":"STARLINK-5248","OBJECT_ID":"2022-141T","EPOCH":"2026-02-21T06:28:15.295008","MEAN_MOTION":15.08845298,"ECCENTRICITY":0.0001377,"INCLINATION":53.2192,"RA_OF_ASC_NODE":22.5732,"ARG_OF_PERICENTER":86.7392,"MEAN_ANOMALY":273.3757,"EPHEMERIS_TYPE":0,"CLASSIFICATION_TYPE":"U","NORAD_CAT_ID":54174,"ELEMENT_SET_NO":999,"REV_AT_EPOCH":18415,"BSTAR":5.707e-5,"MEAN_MOTION_DOT":6.21e-6,"MEAN_MOTION_DDOT":0},{"OBJECT_NAME":"STARLINK-5256","OBJECT_ID":"2022-141U","EPOCH":"2026-02-21T12:02:51.519552","MEAN_MOTION":15.08823527,"ECCENTRICITY":0.00014169,"INCLINATION":53.2166,"RA_OF_ASC_NODE":76.801,"ARG_OF_PERICENTER":80.99,"MEAN_ANOMALY":279.1253,"EPHEMERIS_TYPE":0,"CLASSIFICATION_TYPE":"U","NORAD_CAT_ID":54175,"ELEMENT_SET_NO":999,"REV_AT_EPOCH":18341,"BSTAR":-8.361877e-5,"MEAN_MOTION_DOT":-1.618e-5,"MEAN_MOTION_DDOT":0},{"OBJECT_NAME":"STARLINK-5154","OBJECT_ID":"2022-141V","EPOCH":"2026-02-21T13:17:00.073248","MEAN_MOTION":15.08837179,"ECCENTRICITY":0.00013499,"INCLINATION":53.2164,"RA_OF_ASC_NODE":76.4141,"ARG_OF_PERICENTER":90.4561,"MEAN_ANOMALY":269.6586,"EPHEMERIS_TYPE":0,"CLASSIFICATION_TYPE":"U","NORAD_CAT_ID":54176,"ELEMENT_SET_NO":999,"REV_AT_EPOCH":18342,"BSTAR":2.9925849e-5,"MEAN_MOTION_DOT":1.88e-6,"MEAN_MOTION_DDOT":0},{"OBJECT_NAME":"STARLINK-5186","OBJECT_ID":"2022-141W","EPOCH":"2026-02-21T11:52:13.412352","MEAN_MOTION":15.088431,"ECCENTRICITY":0.00012937,"INCLINATION":53.2164,"RA_OF_ASC_NODE":76.7551,"ARG_OF_PERICENTER":94.4423,"MEAN_ANOMALY":265.6717,"EPHEMERIS_TYPE":0,"CLASSIFICATION_TYPE":"U","NORAD_CAT_ID":54177,"ELEMENT_SET_NO":999,"REV_AT_EPOCH":18341,"BSTAR":0.00016521803,"MEAN_MOTION_DOT":2.343e-5,"MEAN_MOTION_DDOT":0},{"OBJECT_NAME":"STARLINK-5164","OBJECT_ID":"2022-141X","EPOCH":"2026-02-21T12:55:46.515648","MEAN_MOTION":15.08834008,"ECCENTRICITY":0.00014298,"INCLINATION":53.2174,"RA_OF_ASC_NODE":76.3043,"ARG_OF_PERICENTER":93.3051,"MEAN_ANOMALY":266.8104,"EPHEMERIS_TYPE":0,"CLASSIFICATION_TYPE":"U","NORAD_CAT_ID":54178,"ELEMENT_SET_NO":999,"REV_AT_EPOCH":18342,"BSTAR":0.0001215667,"MEAN_MOTION_DOT":1.647e-5,"MEAN_MOTION_DDOT":0},{"OBJECT_NAME":"STARLINK-5122","OBJECT_ID":"2022-141Y","EPOCH":"2026-02-21T13:22:20.313120","MEAN_MOTION":15.08819718,"ECCENTRICITY":0.00013801,"INCLINATION":53.2167,"RA_OF_ASC_NODE":76.4351,"ARG_OF_PERICENTER":97.2964,"MEAN_ANOMALY":262.8185,"EPHEMERIS_TYPE":0,"CLASSIFICATION_TYPE":"U","NORAD_CAT_ID":54179,"ELEMENT_SET_NO":999,"REV_AT_EPOCH":18342,"BSTAR":-9.0942677e-5,"MEAN_MOTION_DOT":-1.734e-5,"MEAN_MOTION_DDOT":0},{"OBJECT_NAME":"STARLINK-5228","OBJECT_ID":"2022-141Z","EPOCH":"2026-02-21T12:50:27.822336","MEAN_MOTION":15.08843078,"ECCENTRICITY":0.00013628,"INCLINATION":53.2169,"RA_OF_ASC_NODE":76.3016,"ARG_OF_PERICENTER":90.2108,"MEAN_ANOMALY":269.904,"EPHEMERIS_TYPE":0,"CLASSIFICATION_TYPE":"U","NORAD_CAT_ID":54180,"ELEMENT_SET_NO":999,"REV_AT_EPOCH":18342,"BSTAR":3.1193774e-5,"MEAN_MOTION_DOT":2.09e-6,"MEAN_MOTION_DDOT":0},{"OBJECT_NAME":"STARLINK-5227","OBJECT_ID":"2022-141AA","EPOCH":"2026-02-21T13:06:26.191872","MEAN_MOTION":15.08802544,"ECCENTRICITY":0.00011434,"INCLINATION":53.2173,"RA_OF_ASC_NODE":76.3701,"ARG_OF_PERICENTER":99.3217,"MEAN_ANOMALY":260.7904,"EPHEMERIS_TYPE":0,"CLASSIFICATION_TYPE":"U","NORAD_CAT_ID":54181,"ELEMENT_SET_NO":999,"REV_AT_EPOCH":18342,"BSTAR":-0.00029491604,"MEAN_MOTION_DOT":-4.973e-5,"MEAN_MOTION_DDOT":0},{"OBJECT_NAME":"STARLINK-5231","OBJECT_ID":"2022-141AB","EPOCH":"2026-02-21T10:57:51.808896","MEAN_MOTION":15.08841078,"ECCENTRICITY":0.00012127,"INCLINATION":53.2177,"RA_OF_ASC_NODE":46.6263,"ARG_OF_PERICENTER":87.944,"MEAN_ANOMALY":272.1691,"EPHEMERIS_TYPE":0,"CLASSIFICATION_TYPE":"U","NORAD_CAT_ID":54182,"ELEMENT_SET_NO":999,"REV_AT_EPOCH":18383,"BSTAR":-4.918918e-5,"MEAN_MOTION_DOT":-1.071e-5,"MEAN_MOTION_DDOT":0},{"OBJECT_NAME":"STARLINK-5239","OBJECT_ID":"2022-141AC","EPOCH":"2026-02-21T12:45:09.224064","MEAN_MOTION":15.08845177,"ECCENTRICITY":0.0001373,"INCLINATION":53.2168,"RA_OF_ASC_NODE":76.2789,"ARG_OF_PERICENTER":87.1496,"MEAN_ANOMALY":272.9653,"EPHEMERIS_TYPE":0,"CLASSIFICATION_TYPE":"U","NORAD_CAT_ID":54183,"ELEMENT_SET_NO":999,"REV_AT_EPOCH":18342,"BSTAR":6.029637e-5,"MEAN_MOTION_DOT":6.72e-6,"MEAN_MOTION_DDOT":0},{"OBJECT_NAME":"STARLINK-5162","OBJECT_ID":"2022-141AD","EPOCH":"2026-02-21T12:51:57.724128","MEAN_MOTION":15.0884321,"ECCENTRICITY":0.00013856,"INCLINATION":53.2167,"RA_OF_ASC_NODE":76.9988,"ARG_OF_PERICENTER":84.6809,"MEAN_ANOMALY":275.4341,"EPHEMERIS_TYPE":0,"CLASSIFICATION_TYPE":"U","NORAD_CAT_ID":54184,"ELEMENT_SET_NO":999,"REV_AT_EPOCH":18341,"BSTAR":4.0658918e-5,"MEAN_MOTION_DOT":3.59e-6,"MEAN_MOTION_DDOT":0},{"OBJECT_NAME":"STARLINK-5235","OBJECT_ID":"2022-141AE","EPOCH":"2026-02-21T13:01:04.789920","MEAN_MOTION":15.08840517,"ECCENTRICITY":0.00012068,"INCLINATION":53.2169,"RA_OF_ASC_NODE":76.3458,"ARG_OF_PERICENTER":93.7899,"MEAN_ANOMALY":266.3231,"EPHEMERIS_TYPE":0,"CLASSIFICATION_TYPE":"U","NORAD_CAT_ID":54185,"ELEMENT_SET_NO":999,"REV_AT_EPOCH":18342,"BSTAR":2.2021484e-5,"MEAN_MOTION_DOT":6.3e-7,"MEAN_MOTION_DDOT":0},{"OBJECT_NAME":"STARLINK-5240","OBJECT_ID":"2022-141AG","EPOCH":"2026-02-21T11:36:18.230112","MEAN_MOTION":15.08842789,"ECCENTRICITY":0.00011552,"INCLINATION":53.2165,"RA_OF_ASC_NODE":76.6967,"ARG_OF_PERICENTER":81.7116,"MEAN_ANOMALY":278.4007,"EPHEMERIS_TYPE":0,"CLASSIFICATION_TYPE":"U","NORAD_CAT_ID":54187,"ELEMENT_SET_NO":999,"REV_AT_EPOCH":18341,"BSTAR":7.8901602e-5,"MEAN_MOTION_DOT":9.68e-6,"MEAN_MOTION_DDOT":0},{"OBJECT_NAME":"STARLINK-5238","OBJECT_ID":"2022-141AH","EPOCH":"2026-02-21T10:44:41.807040","MEAN_MOTION":15.08828438,"ECCENTRICITY":0.00012139,"INCLINATION":53.2166,"RA_OF_ASC_NODE":67.1959,"ARG_OF_PERICENTER":84.7898,"MEAN_ANOMALY":275.3232,"EPHEMERIS_TYPE":0,"CLASSIFICATION_TYPE":"U","NORAD_CAT_ID":54188,"ELEMENT_SET_NO":999,"REV_AT_EPOCH":18354,"BSTAR":9.909318e-6,"MEAN_MOTION_DOT":-1.3e-6,"MEAN_MOTION_DDOT":0},{"OBJECT_NAME":"STARLINK-5281","OBJECT_ID":"2022-141AK","EPOCH":"2026-02-21T12:14:46.790592","MEAN_MOTION":15.08853163,"ECCENTRICITY":0.00012869,"INCLINATION":53.217,"RA_OF_ASC_NODE":66.8731,"ARG_OF_PERICENTER":76.2106,"MEAN_ANOMALY":283.9029,"EPHEMERIS_TYPE":0,"CLASSIFICATION_TYPE":"U","NORAD_CAT_ID":54190,"ELEMENT_SET_NO":999,"REV_AT_EPOCH":18355,"BSTAR":9.8966385e-5,"MEAN_MOTION_DOT":1.288e-5,"MEAN_MOTION_DDOT":0},{"OBJECT_NAME":"STARLINK-4619","OBJECT_ID":"2022-141AL","EPOCH":"2026-02-21T10:55:18.748704","MEAN_MOTION":15.08837337,"ECCENTRICITY":0.00013076,"INCLINATION":53.2169,"RA_OF_ASC_NODE":67.24,"ARG_OF_PERICENTER":100.3045,"MEAN_ANOMALY":259.8095,"EPHEMERIS_TYPE":0,"CLASSIFICATION_TYPE":"U","NORAD_CAT_ID":54191,"ELEMENT_SET_NO":999,"REV_AT_EPOCH":18354,"BSTAR":-2.4574849e-5,"MEAN_MOTION_DOT":-6.79e-6,"MEAN_MOTION_DDOT":0},{"OBJECT_NAME":"STARLINK-5268","OBJECT_ID":"2022-141AM","EPOCH":"2026-02-21T11:21:43.341120","MEAN_MOTION":15.08835817,"ECCENTRICITY":0.00013777,"INCLINATION":53.217,"RA_OF_ASC_NODE":66.6437,"ARG_OF_PERICENTER":86.1768,"MEAN_ANOMALY":273.9382,"EPHEMERIS_TYPE":0,"CLASSIFICATION_TYPE":"U","NORAD_CAT_ID":54192,"ELEMENT_SET_NO":999,"REV_AT_EPOCH":18355,"BSTAR":4.261665e-5,"MEAN_MOTION_DOT":3.9e-6,"MEAN_MOTION_DDOT":0},{"OBJECT_NAME":"STARLINK-5263","OBJECT_ID":"2022-141AN","EPOCH":"2026-02-21T07:18:00.880704","MEAN_MOTION":15.0884362,"ECCENTRICITY":0.00014743,"INCLINATION":53.2159,"RA_OF_ASC_NODE":67.7195,"ARG_OF_PERICENTER":79.1074,"MEAN_ANOMALY":281.0084,"EPHEMERIS_TYPE":0,"CLASSIFICATION_TYPE":"U","NORAD_CAT_ID":54193,"ELEMENT_SET_NO":999,"REV_AT_EPOCH":18352,"BSTAR":0.00039128973,"MEAN_MOTION_DOT":5.945e-5,"MEAN_MOTION_DDOT":0}]
